{
  "type": "FeatureCollection",
  "features": [
    {
      "type": "Feature",
      "properties": {
        "year": 2004,
        "event": "Catastrophic Landslide Outburst Flood (Tsatichhu Dam Breach)",
        "severity": "Extreme High Inundation & Sedimentation",
        "fillColor": "#e63946"
      },
      "geometry": {
        "type": "MultiPolygon",
        "coordinates": [
          [
            [
              [90.93, 26.80], [90.99, 26.79], [91.02, 26.65], 
              [91.04, 26.50], [91.06, 26.30], [90.85, 26.30], 
              [90.87, 26.55], [90.89, 26.72], [90.93, 26.80]
            ]
          ]
        ]
      }
    },
    {
      "type": "Feature",
      "properties": {
        "year": 2007,
        "event": "Post-Breach Channel Migration & Severe Inundation",
        "severity": "High Channel Shift (Hakuwa to Beki)",
        "fillColor": "#f4a261"
      },
      "geometry": {
        "type": "MultiPolygon",
        "coordinates": [
          [
            [
              [90.94, 26.75], [90.98, 26.72], [91.00, 26.60], 
              [91.02, 26.45], [90.98, 26.32], [90.87, 26.34], 
              [90.90, 26.55], [90.94, 26.75]
            ]
          ]
        ]
      }
    },
    {
      "type": "Feature",
      "properties": {
        "year": 2014,
        "event": "Monsoon Flood & Embankment Erosion Strain",
        "severity": "Moderate-High Flood Extent",
        "fillColor": "#2a9d8f"
      },
      "geometry": {
        "type": "MultiPolygon",
        "coordinates": [
          [
            [
              [90.95, 26.72], [90.97, 26.68], [90.99, 26.55], 
              [91.01, 26.40], [90.95, 26.33], [90.88, 26.35], 
              [90.92, 26.52], [90.95, 26.72]
            ]
          ]
        ]
      }
    },
    {
      "type": "Feature",
      "properties": {
        "year": 2023,
        "event": "Recent Morphological Transformation & Chapori Erosion",
        "severity": "Bank Erosion & Downstream Displacement",
        "fillColor": "#457b9d"
      },
      "geometry": {
        "type": "MultiPolygon",
        "coordinates": [
          [
            [
              [90.95, 26.70], [90.98, 26.65], [90.99, 26.52], 
              [91.02, 26.35], [90.92, 26.34], [90.90, 26.50], 
              [90.95, 26.70]
            ]
          ]
        ]
      }
    }
  ]
}
